[{"OBJECT_NAME":"GSAT0215 (GALILEO 19)","OBJECT_ID":"2017-079A","EPOCH":"2026-04-01T04:09:35.527968","MEAN_MOTION":1.70474678,"ECCENTRICITY":6.51e-5,"INCLINATION":55.099,"RA_OF_ASC_NODE":223.6238,"ARG_OF_PERICENTER":282.365,"MEAN_ANOMALY":77.5667,"EPHEMERIS_TYPE":0,"CLASSIFICATION_TYPE":"U","NORAD_CAT_ID":43055,"ELEMENT_SET_NO":999,"REV_AT_EPOCH":5167,"BSTAR":0,"MEAN_MOTION_DOT":-2.5e-7,"MEAN_MOTION_DDOT":0},{"OBJECT_NAME":"GSAT0216 (GALILEO 20)","OBJECT_ID":"2017-079B","EPOCH":"2026-03-30T02:50:13.045920","MEAN_MOTION":1.70474746,"ECCENTRICITY":0.00019903,"INCLINATION":55.0996,"RA_OF_ASC_NODE":223.6803,"ARG_OF_PERICENTER":299.0743,"MEAN_ANOMALY":60.8437,"EPHEMERIS_TYPE":0,"CLASSIFICATION_TYPE":"U","NORAD_CAT_ID":43056,"ELEMENT_SET_NO":999,"REV_AT_EPOCH":5165,"BSTAR":0,"MEAN_MOTION_DOT":-2.9e-7,"MEAN_MOTION_DDOT":0},{"OBJECT_NAME":"GSAT0217 (GALILEO 21)","OBJECT_ID":"2017-079C","EPOCH":"2026-03-31T12:17:28.222080","MEAN_MOTION":1.70474684,"ECCENTRICITY":0.00018525,"INCLINATION":55.0982,"RA_OF_ASC_NODE":223.6399,"ARG_OF_PERICENTER":332.6198,"MEAN_ANOMALY":27.3079,"EPHEMERIS_TYPE":0,"CLASSIFICATION_TYPE":"U","NORAD_CAT_ID":43057,"ELEMENT_SET_NO":999,"REV_AT_EPOCH":5166,"BSTAR":0,"MEAN_MOTION_DOT":-2.8e-7,"MEAN_MOTION_DDOT":0},{"OBJECT_NAME":"GSAT0218 (GALILEO 22)","OBJECT_ID":"2017-079D","EPOCH":"2026-03-31T17:34:20.611200","MEAN_MOTION":1.70474692,"ECCENTRICITY":0.0002435,"INCLINATION":55.0981,"RA_OF_ASC_NODE":223.6315,"ARG_OF_PERICENTER":286.1215,"MEAN_ANOMALY":73.7895,"EPHEMERIS_TYPE":0,"CLASSIFICATION_TYPE":"U","NORAD_CAT_ID":43058,"ELEMENT_SET_NO":999,"REV_AT_EPOCH":5169,"BSTAR":0,"MEAN_MOTION_DOT":-2.7e-7,"MEAN_MOTION_DDOT":0},{"OBJECT_NAME":"GSAT0221 (GALILEO 25)","OBJECT_ID":"2018-060A","EPOCH":"2026-03-31T01:10:55.184448","MEAN_MOTION":1.70475638,"ECCENTRICITY":0.0004721,"INCLINATION":57.1934,"RA_OF_ASC_NODE":343.8925,"ARG_OF_PERICENTER":315.0021,"MEAN_ANOMALY":45.0002,"EPHEMERIS_TYPE":0,"CLASSIFICATION_TYPE":"U","NORAD_CAT_ID":43564,"ELEMENT_SET_NO":999,"REV_AT_EPOCH":4783,"BSTAR":0,"MEAN_MOTION_DOT":-9.9e-7,"MEAN_MOTION_DDOT":0},{"OBJECT_NAME":"GSAT0222 (GALILEO 26)","OBJECT_ID":"2018-060B","EPOCH":"2026-03-30T16:22:28.355232","MEAN_MOTION":1.70474417,"ECCENTRICITY":8.835e-5,"INCLINATION":57.1979,"RA_OF_ASC_NODE":343.9056,"ARG_OF_PERICENTER":305.9782,"MEAN_ANOMALY":54.0531,"EPHEMERIS_TYPE":0,"CLASSIFICATION_TYPE":"U","NORAD_CAT_ID":43565,"ELEMENT_SET_NO":999,"REV_AT_EPOCH":4787,"BSTAR":0,"MEAN_MOTION_DOT":-9.9e-7,"MEAN_MOTION_DDOT":0},{"OBJECT_NAME":"GSAT0219 (GALILEO 23)","OBJECT_ID":"2018-060C","EPOCH":"2026-04-01T01:50:00.635136","MEAN_MOTION":1.70475311,"ECCENTRICITY":0.0003646,"INCLINATION":57.1965,"RA_OF_ASC_NODE":343.8697,"ARG_OF_PERICENTER":334.2622,"MEAN_ANOMALY":25.7627,"EPHEMERIS_TYPE":0,"CLASSIFICATION_TYPE":"U","NORAD_CAT_ID":43566,"ELEMENT_SET_NO":999,"REV_AT_EPOCH":4787,"BSTAR":0,"MEAN_MOTION_DOT":-9.9e-7,"MEAN_MOTION_DDOT":0},{"OBJECT_NAME":"GSAT0220 (GALILEO 24)","OBJECT_ID":"2018-060D","EPOCH":"2026-03-30T12:54:04.197312","MEAN_MOTION":1.70475558,"ECCENTRICITY":0.00046303,"INCLINATION":57.1962,"RA_OF_ASC_NODE":343.911,"ARG_OF_PERICENTER":318.0225,"MEAN_ANOMALY":41.9812,"EPHEMERIS_TYPE":0,"CLASSIFICATION_TYPE":"U","NORAD_CAT_ID":43567,"ELEMENT_SET_NO":999,"REV_AT_EPOCH":4783,"BSTAR":0,"MEAN_MOTION_DOT":-9.9e-7,"MEAN_MOTION_DDOT":0},{"OBJECT_NAME":"GSAT0223 (GALILEO 27)","OBJECT_ID":"2021-116A","EPOCH":"2026-03-26T13:48:11.384928","MEAN_MOTION":1.70475251,"ECCENTRICITY":0.0001802,"INCLINATION":57.1864,"RA_OF_ASC_NODE":343.9082,"ARG_OF_PERICENTER":284.715,"MEAN_ANOMALY":254.2688,"EPHEMERIS_TYPE":0,"CLASSIFICATION_TYPE":"U","NORAD_CAT_ID":49809,"ELEMENT_SET_NO":999,"REV_AT_EPOCH":2677,"BSTAR":0,"MEAN_MOTION_DOT":-9.5e-7,"MEAN_MOTION_DDOT":0},{"OBJECT_NAME":"GSAT0224 (GALILEO 28)","OBJECT_ID":"2021-116B","EPOCH":"2026-03-30T12:02:23.836992","MEAN_MOTION":1.70475612,"ECCENTRICITY":0.00011156,"INCLINATION":57.1872,"RA_OF_ASC_NODE":343.8008,"ARG_OF_PERICENTER":353.673,"MEAN_ANOMALY":187.7063,"EPHEMERIS_TYPE":0,"CLASSIFICATION_TYPE":"U","NORAD_CAT_ID":49810,"ELEMENT_SET_NO":999,"REV_AT_EPOCH":2686,"BSTAR":0,"MEAN_MOTION_DOT":-9.9e-7,"MEAN_MOTION_DDOT":0},{"OBJECT_NAME":"GSAT0225 (GALILEO 29)","OBJECT_ID":"2024-079A","EPOCH":"2026-03-28T01:49:00.365952","MEAN_MOTION":1.70474547,"ECCENTRICITY":0.00027404,"INCLINATION":55.0678,"RA_OF_ASC_NODE":103.3445,"ARG_OF_PERICENTER":270.8462,"MEAN_ANOMALY":214.737,"EPHEMERIS_TYPE":0,"CLASSIFICATION_TYPE":"U","NORAD_CAT_ID":59598,"ELEMENT_SET_NO":999,"REV_AT_EPOCH":1193,"BSTAR":0,"MEAN_MOTION_DOT":3.9e-7,"MEAN_MOTION_DDOT":0},{"OBJECT_NAME":"GSAT0227 (GALILEO 30)","OBJECT_ID":"2024-079C","EPOCH":"2026-04-01T03:51:17.210304","MEAN_MOTION":1.70474649,"ECCENTRICITY":7.42e-5,"INCLINATION":55.0646,"RA_OF_ASC_NODE":103.2292,"ARG_OF_PERICENTER":8.6243,"MEAN_ANOMALY":351.4227,"EPHEMERIS_TYPE":0,"CLASSIFICATION_TYPE":"U","NORAD_CAT_ID":59600,"ELEMENT_SET_NO":999,"REV_AT_EPOCH":1205,"BSTAR":0,"MEAN_MOTION_DOT":3.6e-7,"MEAN_MOTION_DDOT":0},{"OBJECT_NAME":"GSAT0232 (GALILEO 32)","OBJECT_ID":"2024-167A","EPOCH":"2026-03-30T08:18:50.212800","MEAN_MOTION":1.70474335,"ECCENTRICITY":0.00040309,"INCLINATION":55.2125,"RA_OF_ASC_NODE":223.4742,"ARG_OF_PERICENTER":205.9815,"MEAN_ANOMALY":336.1496,"EPHEMERIS_TYPE":0,"CLASSIFICATION_TYPE":"U","NORAD_CAT_ID":61182,"ELEMENT_SET_NO":999,"REV_AT_EPOCH":953,"BSTAR":0,"MEAN_MOTION_DOT":-3.0e-7,"MEAN_MOTION_DDOT":0},{"OBJECT_NAME":"GSAT0226 (GALILEO 31)","OBJECT_ID":"2024-167B","EPOCH":"2026-03-30T11:58:42.379104","MEAN_MOTION":1.70474291,"ECCENTRICITY":0.0001508,"INCLINATION":55.2093,"RA_OF_ASC_NODE":223.4772,"ARG_OF_PERICENTER":160.3116,"MEAN_ANOMALY":206.8737,"EPHEMERIS_TYPE":0,"CLASSIFICATION_TYPE":"U","NORAD_CAT_ID":61183,"ELEMENT_SET_NO":999,"REV_AT_EPOCH":951,"BSTAR":0,"MEAN_MOTION_DOT":-3.0e-7,"MEAN_MOTION_DDOT":0},{"OBJECT_NAME":"GSAT0233 (GALILEO 33)","OBJECT_ID":"2025-302A","EPOCH":"2026-04-01T09:17:52.008864","MEAN_MOTION":1.70474797,"ECCENTRICITY":0.000246,"INCLINATION":54.2843,"RA_OF_ASC_NODE":104.3167,"ARG_OF_PERICENTER":236.0205,"MEAN_ANOMALY":306.5021,"EPHEMERIS_TYPE":0,"CLASSIFICATION_TYPE":"U","NORAD_CAT_ID":67160,"ELEMENT_SET_NO":999,"REV_AT_EPOCH":181,"BSTAR":0,"MEAN_MOTION_DOT":3.4e-7,"MEAN_MOTION_DDOT":0},{"OBJECT_NAME":"GSAT0234 (GALILEO 34)","OBJECT_ID":"2025-302C","EPOCH":"2026-03-30T22:09:37.497024","MEAN_MOTION":1.70474726,"ECCENTRICITY":0.0003869,"INCLINATION":54.2854,"RA_OF_ASC_NODE":104.3575,"ARG_OF_PERICENTER":286.99,"MEAN_ANOMALY":257.1082,"EPHEMERIS_TYPE":0,"CLASSIFICATION_TYPE":"U","NORAD_CAT_ID":67162,"ELEMENT_SET_NO":999,"REV_AT_EPOCH":184,"BSTAR":0,"MEAN_MOTION_DOT":3.8e-7,"MEAN_MOTION_DDOT":0}]
